COSMOS 2251 DEB         
1 34030U 93036HR  17345.90158986  .00005102  00000-0  15735-3 0  9999
2 34030  73.9538 262.7127 0090386  57.5224  10.4927 15.29876028483551
